{
  "norad_id": 53784,
  "name": "STARLINK-4687",
  "history": [
    {
      "epoch": "2026-03-28T18:05:16.540224Z",
      "apogee_km": 540.6305184830426,
      "perigee_km": 538.8486118373885,
      "latitude_deg": -3.077861549587609e-05,
      "longitude_deg": 91.0886788443872,
      "height_km": 540.5786991104214,
      "semi_major_axis_km": 6917.876565160215,
      "eccentricity": 0.00012879,
      "inclination_deg": 53.2158,
      "raan_deg": 188.5772,
      "arg_perigee_deg": 86.3634,
      "mean_anomaly_deg": 273.7505,
      "mean_motion_rev_day": 15.08841251
    }
  ]
}